UNKNOWN                 
1 85047U          26087.42705576  .00012147  00000+0  19167-1 0  9992
2 85047 102.1674  80.0830 0121435 135.7936 225.2966 13.47111979590870
UNKNOWN                 
1 85061U          26087.48402843  .00003645  00000+0  14429-1 0  9994
2 85061 102.4053  86.0238 0266877 344.9615 169.6602 12.77828797569280
UNKNOWN                 
1 85100U          26086.59301337  .00000328  00000+0  11068-3 0  9998
2 85100  74.0475  28.9206 0013594 233.9710 305.6757 14.40809886648444
UNKNOWN                 
1 85106U          26087.57624000  .00000617  00000+0  71988-3 0  9996
2 85106 100.0548 198.6429 0010643 105.7026 271.6882 13.73057649617591
UNKNOWN                 
1 85151U          26087.07896401  .00019420  00000+0  23355-2 0  9993
2 85151  98.3985 321.1766 0007407 151.5361 208.6257 14.83952023495128
UNKNOWN                 
1 85210U          26087.14518314  .00000285  00000+0  31137-3 0  9998
2 85210  99.8643 236.0506 0215530  44.9305 133.2018 13.71683418616609
UNKNOWN                 
1 85217U          26086.69183066  .00003144  00000+0  82559-3 0  9997
2 85217  98.0220 179.2309 0207396 170.7624 189.7474 14.37766244642939
UNKNOWN                 
1 85237U          26084.59589313  .00003420  00000+0  69292-3 0  9997
2 85237  65.5328 304.6752 0516473 340.8747  17.3543 14.02416885622767
UNKNOWN                 
1 85238U          26085.62084553  .00000040  00000+0  68887-4 0  9994
2 85238  99.0695  16.8725 0062385 280.0739 203.0789 13.88363746625256
UNKNOWN                 
1 85246U          26087.26307044  .00002250  00000+0  80919-3 0  9992
2 85246  97.9915  85.9004 0222015 353.1040   6.7099 14.21870149638062
UNKNOWN                 
1 85373U          26086.37486262  .00002375  00000+0  16190-2 0  9991
2 85373 100.4246 141.9686 0050243 323.3511  97.4263 14.00520723626775
UNKNOWN                 
1 85423U          26080.09226852 -.00000119  00000+0  00000+0 0  9992
2 85423   0.2500  63.9100 0237500 184.1600 179.3500  1.04170165    18
UNKNOWN                 
1 85448U          26072.61808446 -.00000384  00000+0  00000+0 0  9997
2 85448  41.4606 155.5047 0007289 313.6966 141.3444 15.68404032    03
UNKNOWN                 
1 87014U          26086.42507979  .00002304  00000+0  35276-2 0  9998
2 87014 100.4810  61.5205 0053180 349.8031 161.7348 13.52435110605062
UNKNOWN                 
1 87029U          26086.81119665  .00001124  00000+0  70759-3 0  9993
2 87029  98.7455 123.3128 0080255 315.8016  43.6758 14.04747797607758
UNKNOWN                 
1 87042U          26087.40755996  .00000945  00000+0  58250-3 0  9999
2 87042  98.6992 131.7647 0044467 156.0401 204.2851 14.07305206568826
