[{"OBJECT_NAME":"UNKNOWN","OBJECT_ID":"","EPOCH":"2026-03-28T10:14:57.617664","MEAN_MOTION":13.47111979,"ECCENTRICITY":0.0121435,"INCLINATION":102.1674,"RA_OF_ASC_NODE":80.083,"ARG_OF_PERICENTER":135.7936,"MEAN_ANOMALY":225.2966,"EPHEMERIS_TYPE":0,"CLASSIFICATION_TYPE":"U","NORAD_CAT_ID":85047,"ELEMENT_SET_NO":999,"REV_AT_EPOCH":59087,"BSTAR":0.019167,"MEAN_MOTION_DOT":0.00012147,"MEAN_MOTION_DDOT":0},{"OBJECT_NAME":"UNKNOWN","OBJECT_ID":"","EPOCH":"2026-03-28T11:37:00.056352","MEAN_MOTION":12.77828797,"ECCENTRICITY":0.0266877,"INCLINATION":102.4053,"RA_OF_ASC_NODE":86.0238,"ARG_OF_PERICENTER":344.9615,"MEAN_ANOMALY":169.6602,"EPHEMERIS_TYPE":0,"CLASSIFICATION_TYPE":"U","NORAD_CAT_ID":85061,"ELEMENT_SET_NO":999,"REV_AT_EPOCH":56928,"BSTAR":0.014429,"MEAN_MOTION_DOT":3.645e-5,"MEAN_MOTION_DDOT":0},{"OBJECT_NAME":"UNKNOWN","OBJECT_ID":"","EPOCH":"2026-03-27T14:13:56.355168","MEAN_MOTION":14.40809886,"ECCENTRICITY":0.0013594,"INCLINATION":74.0475,"RA_OF_ASC_NODE":28.9206,"ARG_OF_PERICENTER":233.971,"MEAN_ANOMALY":305.6757,"EPHEMERIS_TYPE":0,"CLASSIFICATION_TYPE":"U","NORAD_CAT_ID":85100,"ELEMENT_SET_NO":999,"REV_AT_EPOCH":64844,"BSTAR":0.00011068,"MEAN_MOTION_DOT":3.28e-6,"MEAN_MOTION_DDOT":0},{"OBJECT_NAME":"UNKNOWN","OBJECT_ID":"","EPOCH":"2026-03-28T13:49:47.136000","MEAN_MOTION":13.73057649,"ECCENTRICITY":0.0010643,"INCLINATION":100.0548,"RA_OF_ASC_NODE":198.6429,"ARG_OF_PERICENTER":105.7026,"MEAN_ANOMALY":271.6882,"EPHEMERIS_TYPE":0,"CLASSIFICATION_TYPE":"U","NORAD_CAT_ID":85106,"ELEMENT_SET_NO":999,"REV_AT_EPOCH":61759,"BSTAR":0.00071988,"MEAN_MOTION_DOT":6.17e-6,"MEAN_MOTION_DDOT":0},{"OBJECT_NAME":"UNKNOWN","OBJECT_ID":"","EPOCH":"2026-03-28T01:53:42.490464","MEAN_MOTION":14.83952023,"ECCENTRICITY":0.0007407,"INCLINATION":98.3985,"RA_OF_ASC_NODE":321.1766,"ARG_OF_PERICENTER":151.5361,"MEAN_ANOMALY":208.6257,"EPHEMERIS_TYPE":0,"CLASSIFICATION_TYPE":"U","NORAD_CAT_ID":85151,"ELEMENT_SET_NO":999,"REV_AT_EPOCH":49512,"BSTAR":0.0023355,"MEAN_MOTION_DOT":0.0001942,"MEAN_MOTION_DDOT":0},{"OBJECT_NAME":"UNKNOWN","OBJECT_ID":"","EPOCH":"2026-03-28T03:29:03.823296","MEAN_MOTION":13.71683418,"ECCENTRICITY":0.021553,"INCLINATION":99.8643,"RA_OF_ASC_NODE":236.0506,"ARG_OF_PERICENTER":44.9305,"MEAN_ANOMALY":133.2018,"EPHEMERIS_TYPE":0,"CLASSIFICATION_TYPE":"U","NORAD_CAT_ID":85210,"ELEMENT_SET_NO":999,"REV_AT_EPOCH":61660,"BSTAR":0.00031137,"MEAN_MOTION_DOT":2.85e-6,"MEAN_MOTION_DDOT":0},{"OBJECT_NAME":"UNKNOWN","OBJECT_ID":"","EPOCH":"2026-03-27T16:36:14.169024","MEAN_MOTION":14.37766244,"ECCENTRICITY":0.0207396,"INCLINATION":98.022,"RA_OF_ASC_NODE":179.2309,"ARG_OF_PERICENTER":170.7624,"MEAN_ANOMALY":189.7474,"EPHEMERIS_TYPE":0,"CLASSIFICATION_TYPE":"U","NORAD_CAT_ID":85217,"ELEMENT_SET_NO":999,"REV_AT_EPOCH":64293,"BSTAR":0.00082559,"MEAN_MOTION_DOT":3.144e-5,"MEAN_MOTION_DDOT":0},{"OBJECT_NAME":"UNKNOWN","OBJECT_ID":"","EPOCH":"2026-03-25T14:18:05.166432","MEAN_MOTION":14.02416885,"ECCENTRICITY":0.0516473,"INCLINATION":65.5328,"RA_OF_ASC_NODE":304.6752,"ARG_OF_PERICENTER":340.8747,"MEAN_ANOMALY":17.3543,"EPHEMERIS_TYPE":0,"CLASSIFICATION_TYPE":"U","NORAD_CAT_ID":85237,"ELEMENT_SET_NO":999,"REV_AT_EPOCH":62276,"BSTAR":0.00069292,"MEAN_MOTION_DOT":3.42e-5,"MEAN_MOTION_DDOT":0},{"OBJECT_NAME":"UNKNOWN","OBJECT_ID":"","EPOCH":"2026-03-26T14:54:01.053792","MEAN_MOTION":13.88363746,"ECCENTRICITY":0.0062385,"INCLINATION":99.0695,"RA_OF_ASC_NODE":16.8725,"ARG_OF_PERICENTER":280.0739,"MEAN_ANOMALY":203.0789,"EPHEMERIS_TYPE":0,"CLASSIFICATION_TYPE":"U","NORAD_CAT_ID":85238,"ELEMENT_SET_NO":999,"REV_AT_EPOCH":62525,"BSTAR":6.8887e-5,"MEAN_MOTION_DOT":4.0e-7,"MEAN_MOTION_DDOT":0},{"OBJECT_NAME":"UNKNOWN","OBJECT_ID":"","EPOCH":"2026-03-28T06:18:49.286016","MEAN_MOTION":14.21870149,"ECCENTRICITY":0.0222015,"INCLINATION":97.9915,"RA_OF_ASC_NODE":85.9004,"ARG_OF_PERICENTER":353.104,"MEAN_ANOMALY":6.7099,"EPHEMERIS_TYPE":0,"CLASSIFICATION_TYPE":"U","NORAD_CAT_ID":85246,"ELEMENT_SET_NO":999,"REV_AT_EPOCH":63806,"BSTAR":0.00080919,"MEAN_MOTION_DOT":2.25e-5,"MEAN_MOTION_DDOT":0},{"OBJECT_NAME":"UNKNOWN","OBJECT_ID":"","EPOCH":"2026-03-27T08:59:48.130368","MEAN_MOTION":14.00520723,"ECCENTRICITY":0.0050243,"INCLINATION":100.4246,"RA_OF_ASC_NODE":141.9686,"ARG_OF_PERICENTER":323.3511,"MEAN_ANOMALY":97.4263,"EPHEMERIS_TYPE":0,"CLASSIFICATION_TYPE":"U","NORAD_CAT_ID":85373,"ELEMENT_SET_NO":999,"REV_AT_EPOCH":62677,"BSTAR":0.001619,"MEAN_MOTION_DOT":2.375e-5,"MEAN_MOTION_DDOT":0},{"OBJECT_NAME":"UNKNOWN","OBJECT_ID":"","EPOCH":"2026-03-21T02:12:52.000128","MEAN_MOTION":1.04170165,"ECCENTRICITY":0.02375,"INCLINATION":0.25,"RA_OF_ASC_NODE":63.91,"ARG_OF_PERICENTER":184.16,"MEAN_ANOMALY":179.35,"EPHEMERIS_TYPE":0,"CLASSIFICATION_TYPE":"U","NORAD_CAT_ID":85423,"ELEMENT_SET_NO":999,"REV_AT_EPOCH":1,"BSTAR":0,"MEAN_MOTION_DOT":-1.19e-6,"MEAN_MOTION_DDOT":0},{"OBJECT_NAME":"UNKNOWN","OBJECT_ID":"","EPOCH":"2026-03-13T14:50:02.497344","MEAN_MOTION":15.68404032,"ECCENTRICITY":0.0007289,"INCLINATION":41.4606,"RA_OF_ASC_NODE":155.5047,"ARG_OF_PERICENTER":313.6966,"MEAN_ANOMALY":141.3444,"EPHEMERIS_TYPE":0,"CLASSIFICATION_TYPE":"U","NORAD_CAT_ID":85448,"ELEMENT_SET_NO":999,"REV_AT_EPOCH":0,"BSTAR":0,"MEAN_MOTION_DOT":-3.84e-6,"MEAN_MOTION_DDOT":0},{"OBJECT_NAME":"UNKNOWN","OBJECT_ID":"","EPOCH":"2026-03-27T10:12:06.893856","MEAN_MOTION":13.5243511,"ECCENTRICITY":0.005318,"INCLINATION":100.481,"RA_OF_ASC_NODE":61.5205,"ARG_OF_PERICENTER":349.8031,"MEAN_ANOMALY":161.7348,"EPHEMERIS_TYPE":0,"CLASSIFICATION_TYPE":"U","NORAD_CAT_ID":87014,"ELEMENT_SET_NO":999,"REV_AT_EPOCH":60506,"BSTAR":0.0035276,"MEAN_MOTION_DOT":2.304e-5,"MEAN_MOTION_DDOT":0},{"OBJECT_NAME":"UNKNOWN","OBJECT_ID":"","EPOCH":"2026-03-27T19:28:07.390560","MEAN_MOTION":14.04747797,"ECCENTRICITY":0.0080255,"INCLINATION":98.7455,"RA_OF_ASC_NODE":123.3128,"ARG_OF_PERICENTER":315.8016,"MEAN_ANOMALY":43.6758,"EPHEMERIS_TYPE":0,"CLASSIFICATION_TYPE":"U","NORAD_CAT_ID":87029,"ELEMENT_SET_NO":999,"REV_AT_EPOCH":60775,"BSTAR":0.00070759,"MEAN_MOTION_DOT":1.124e-5,"MEAN_MOTION_DDOT":0},{"OBJECT_NAME":"UNKNOWN","OBJECT_ID":"","EPOCH":"2026-03-28T09:46:53.180544","MEAN_MOTION":14.07305206,"ECCENTRICITY":0.0044467,"INCLINATION":98.6992,"RA_OF_ASC_NODE":131.7647,"ARG_OF_PERICENTER":156.0401,"MEAN_ANOMALY":204.2851,"EPHEMERIS_TYPE":0,"CLASSIFICATION_TYPE":"U","NORAD_CAT_ID":87042,"ELEMENT_SET_NO":999,"REV_AT_EPOCH":56882,"BSTAR":0.0005825,"MEAN_MOTION_DOT":9.45e-6,"MEAN_MOTION_DDOT":0}]
